{
  "links" : {
    "next" : "https://api.nasa.gov/neo/rest/v1/feed?start_date=2006-12-23&end_date=2006-12-23&detailed=true&api_key=t0TVs3DtDT2H8Oy2Zy8m2eVrNsAVKAexjcZXUckd",
    "prev" : "https://api.nasa.gov/neo/rest/v1/feed?start_date=2006-12-21&end_date=2006-12-21&detailed=true&api_key=t0TVs3DtDT2H8Oy2Zy8m2eVrNsAVKAexjcZXUckd",
    "self" : "https://api.nasa.gov/neo/rest/v1/feed?start_date=2006-12-22&end_date=2006-12-22&detailed=true&api_key=t0TVs3DtDT2H8Oy2Zy8m2eVrNsAVKAexjcZXUckd"
  },
  "element_count" : 5,
  "near_earth_objects" : {
    "2006-12-22" : [ {
      "links" : {
        "self" : "https://api.nasa.gov/neo/rest/v1/neo/3363431?api_key=t0TVs3DtDT2H8Oy2Zy8m2eVrNsAVKAexjcZXUckd"
      },
      "neo_reference_id" : "3363431",
      "name" : "(2006 XZ2)",
      "nasa_jpl_url" : "http://ssd.jpl.nasa.gov/sbdb.cgi?sstr=3363431",
      "absolute_magnitude_h" : 27.1,
      "estimated_diameter" : {
        "kilometers" : {
          "estimated_diameter_min" : 0.0101054342,
          "estimated_diameter_max" : 0.0225964377
        },
        "meters" : {
          "estimated_diameter_min" : 10.1054341542,
          "estimated_diameter_max" : 22.5964377109
        },
        "miles" : {
          "estimated_diameter_min" : 0.0062792237,
          "estimated_diameter_max" : 0.0140407711
        },
        "feet" : {
          "estimated_diameter_min" : 33.1543125905,
          "estimated_diameter_max" : 74.1352966996
        }
      },
      "is_potentially_hazardous_asteroid" : false,
      "close_approach_data" : [ {
        "close_approach_date" : "2006-12-22",
        "epoch_date_close_approach" : 1166774400000,
        "relative_velocity" : {
          "kilometers_per_second" : "9.4406504929",
          "kilometers_per_hour" : "33986.3417744215",
          "miles_per_hour" : "21117.7910875565"
        },
        "miss_distance" : {
          "astronomical" : "0.0123018559",
          "lunar" : "4.7854218483",
          "kilometers" : "1840331.375",
          "miles" : "1143529"
        },
        "orbiting_body" : "Earth"
      } ],
      "orbital_data" : {
        "orbit_id" : "11",
        "orbit_determination_date" : "2017-04-06 09:07:22",
        "orbit_uncertainty" : "7",
        "minimum_orbit_intersection" : ".00243295",
        "jupiter_tisserand_invariant" : "4.082",
        "epoch_osculation" : "2458000.5",
        "eccentricity" : ".4644507010070513",
        "semi_major_axis" : "1.694138642259767",
        "inclination" : ".3037944976374576",
        "ascending_node_longitude" : "120.3926394799032",
        "orbital_period" : "805.4189614633996",
        "perihelion_distance" : ".9072947622590842",
        "perihelion_argument" : "12.69654788235237",
        "aphelion_distance" : "2.48098252226045",
        "perihelion_time" : "2458151.374521373373",
        "mean_anomaly" : "292.5632617392974",
        "mean_motion" : ".4469723426251362",
        "equinox" : "J2000"
      }
    }, {
      "links" : {
        "self" : "https://api.nasa.gov/neo/rest/v1/neo/2164202?api_key=t0TVs3DtDT2H8Oy2Zy8m2eVrNsAVKAexjcZXUckd"
      },
      "neo_reference_id" : "2164202",
      "name" : "164202 (2004 EW)",
      "nasa_jpl_url" : "http://ssd.jpl.nasa.gov/sbdb.cgi?sstr=2164202",
      "absolute_magnitude_h" : 20.8,
      "estimated_diameter" : {
        "kilometers" : {
          "estimated_diameter_min" : 0.1838886721,
          "estimated_diameter_max" : 0.411187571
        },
        "meters" : {
          "estimated_diameter_min" : 183.8886720703,
          "estimated_diameter_max" : 411.1875710413
        },
        "miles" : {
          "estimated_diameter_min" : 0.1142630881,
          "estimated_diameter_max" : 0.2555000322
        },
        "feet" : {
          "estimated_diameter_min" : 603.309310875,
          "estimated_diameter_max" : 1349.040630575
        }
      },
      "is_potentially_hazardous_asteroid" : true,
      "close_approach_data" : [ {
        "close_approach_date" : "2006-12-22",
        "epoch_date_close_approach" : 1166774400000,
        "relative_velocity" : {
          "kilometers_per_second" : "6.7909610919",
          "kilometers_per_hour" : "24447.4599307197",
          "miles_per_hour" : "15190.7008663963"
        },
        "miss_distance" : {
          "astronomical" : "0.228650239",
          "lunar" : "88.9449462891",
          "kilometers" : "34205588",
          "miles" : "21254368"
        },
        "orbiting_body" : "Earth"
      } ],
      "orbital_data" : {
        "orbit_id" : "73",
        "orbit_determination_date" : "2017-05-28 06:20:23",
        "orbit_uncertainty" : "0",
        "minimum_orbit_intersection" : ".0241636",
        "jupiter_tisserand_invariant" : "6.099",
        "epoch_osculation" : "2458000.5",
        "eccentricity" : ".2792445622055008",
        "semi_major_axis" : ".9882461226873593",
        "inclination" : "4.669720186458235",
        "ascending_node_longitude" : "342.9446180859713",
        "orbital_period" : "358.8360814924976",
        "perihelion_distance" : ".7122837668062439",
        "perihelion_argument" : "56.11674907775181",
        "aphelion_distance" : "1.264208478568475",
        "perihelion_time" : "2458009.864908087411",
        "mean_anomaly" : "350.6047159542996",
        "mean_motion" : "1.003243593851157",
        "equinox" : "J2000"
      }
    }, {
      "links" : {
        "self" : "https://api.nasa.gov/neo/rest/v1/neo/2277475?api_key=t0TVs3DtDT2H8Oy2Zy8m2eVrNsAVKAexjcZXUckd"
      },
      "neo_reference_id" : "2277475",
      "name" : "277475 (2005 WK4)",
      "nasa_jpl_url" : "http://ssd.jpl.nasa.gov/sbdb.cgi?sstr=2277475",
      "absolute_magnitude_h" : 20.1,
      "estimated_diameter" : {
        "kilometers" : {
          "estimated_diameter_min" : 0.2538370294,
          "estimated_diameter_max" : 0.5675968529
        },
        "meters" : {
          "estimated_diameter_min" : 253.8370293645,
          "estimated_diameter_max" : 567.5968528656
        },
        "miles" : {
          "estimated_diameter_min" : 0.1577269688,
          "estimated_diameter_max" : 0.3526882241
        },
        "feet" : {
          "estimated_diameter_min" : 832.7986794202,
          "estimated_diameter_max" : 1862.1944587557
        }
      },
      "is_potentially_hazardous_asteroid" : true,
      "close_approach_data" : [ {
        "close_approach_date" : "2006-12-22",
        "epoch_date_close_approach" : 1166774400000,
        "relative_velocity" : {
          "kilometers_per_second" : "5.4168408168",
          "kilometers_per_hour" : "19500.6269403731",
          "miles_per_hour" : "12116.9312230335"
        },
        "miss_distance" : {
          "astronomical" : "0.2578077488",
          "lunar" : "100.2872161865",
          "kilometers" : "38567492",
          "miles" : "23964728"
        },
        "orbiting_body" : "Earth"
      } ],
      "orbital_data" : {
        "orbit_id" : "89",
        "orbit_determination_date" : "2017-04-06 09:24:26",
        "orbit_uncertainty" : "0",
        "minimum_orbit_intersection" : ".00370865",
        "jupiter_tisserand_invariant" : "5.992",
        "epoch_osculation" : "2458000.5",
        "eccentricity" : ".2374401240519563",
        "semi_major_axis" : "1.010646721140152",
        "inclination" : "9.843262550594543",
        "ascending_node_longitude" : "138.141106053268",
        "orbital_period" : "371.1055794638431",
        "perihelion_distance" : ".7706786382999316",
        "perihelion_argument" : "74.06324914441342",
        "aphelion_distance" : "1.250614803980373",
        "perihelion_time" : "2457916.959922284400",
        "mean_anomaly" : "81.04008573804285",
        "mean_motion" : ".9700743398148637",
        "equinox" : "J2000"
      }
    } ]
  }
}